COSMOS 1933             
1 18958U 88020A   26040.70626454  .00003612  00000+0  17756-3 0  9995
2 18958  82.5121 278.5986 0003120 315.8966  44.2019 15.17741890 45980
SL-3 R/B                
1 19046U 88032B   26040.94667403  .00006496  00000+0  30631-3 0  9992
2 19046  97.5153  24.3134 0025293 334.9549  25.0456 15.19549235 47891
SL-16 R/B               
1 19120U 88039B   26040.65428423 -.00000058  00000+0 -46937-5 0  9995
2 19120  71.0149 127.8315 0021031  17.0993 343.0836 14.19611550954402
COSMOS 1953             
1 19210U 88050A   26040.86343755  .00011030  00000+0  40243-3 0  9997
2 19210  82.5093 186.2144 0010736 218.2468 141.8011 15.27962113 33533
SL-8 R/B                
1 19257U 88053B   26040.86231287  .00000287  00000+0  10153-3 0  9996
2 19257  74.0481 163.7540 0020456 348.1087 155.4218 14.38898946972592
COSMOS 1975             
1 19573U 88093A   26040.75858831  .00010113  00000+0  37330-3 0  9994
2 19573  82.5220 145.7047 0010331 268.0750  91.9306 15.27577379 15142
SL-14 R/B               
1 19574U 88093B   26040.58663479  .00000486  00000+0  53033-4 0  9999
2 19574  82.5280  68.4327 0021958 128.5081 348.7256 14.85624512996864
SL-16 R/B               
1 19650U 88102B   26040.93346815  .00000286  00000+0  16851-3 0  9990
2 19650  70.9975 209.8945 0012512  47.3325 312.8850 14.16147843922966
INTERCOSMOS 24          
1 20261U 89080A   26040.68513668  .00000576  00000+0  16657-3 0  9996
2 20261  82.6067 122.6324 1187995 357.8555   1.7680 12.59519309663270
SL-14 R/B               
1 20262U 89080C   26040.86956997  .00000477  00000+0  14452-3 0  9994
2 20262  82.5945 191.0448 1229474 248.3648  98.2271 12.50459348656678
DELTA 1 R/B             
1 20323U 89089B   26040.61624129  .00000428  00000+0  11477-3 0  9993
2 20323  97.0725 252.5162 0068292 210.4093 149.3137 14.50639519891662
ARIANE 40 R/B           
1 20443U 90005H   26040.73894846  .00000300  00000+0  10908-3 0  9991
2 20443  98.3147 102.2247 0008955 290.8766  69.1463 14.39851597888780
