CCSDS_OMM_VERS = 2.0
CREATION_DATE  = 
ORIGINATOR     = 

OBJECT_NAME    = COSMOS 1933
OBJECT_ID      = 1988-020A
CENTER_NAME    = EARTH
REF_FRAME      = TEME
TIME_SYSTEM    = UTC
MEAN_ELEMENT_THEORY = SGP/SGP4

EPOCH          = 2026-02-09T16:57:01.256256
MEAN_MOTION    = 15.17741890
ECCENTRICITY   = .00031203
INCLINATION    = 82.5121
RA_OF_ASC_NODE = 278.5986
ARG_OF_PERICENTER = 315.8966
MEAN_ANOMALY   = 44.2019

EPHEMERIS_TYPE = 0
CLASSIFICATION_TYPE = U
NORAD_CAT_ID   = 18958
ELEMENT_SET_NO = 999
REV_AT_EPOCH   = 4598
BSTAR          = .17756346E-3
MEAN_MOTION_DOT = .3612E-4
MEAN_MOTION_DDOT = 0

CCSDS_OMM_VERS = 2.0
CREATION_DATE  = 
ORIGINATOR     = 

OBJECT_NAME    = SL-3 R/B
OBJECT_ID      = 1988-032B
CENTER_NAME    = EARTH
REF_FRAME      = TEME
TIME_SYSTEM    = UTC
MEAN_ELEMENT_THEORY = SGP/SGP4

EPOCH          = 2026-02-09T22:43:12.636192
MEAN_MOTION    = 15.19549235
ECCENTRICITY   = .00252931
INCLINATION    = 97.5153
RA_OF_ASC_NODE = 24.3134
ARG_OF_PERICENTER = 334.9549
MEAN_ANOMALY   = 25.0456

EPHEMERIS_TYPE = 0
CLASSIFICATION_TYPE = U
NORAD_CAT_ID   = 19046
ELEMENT_SET_NO = 999
REV_AT_EPOCH   = 4789
BSTAR          = .30630598E-3
MEAN_MOTION_DOT = .6496E-4
MEAN_MOTION_DDOT = 0

CCSDS_OMM_VERS = 2.0
CREATION_DATE  = 
ORIGINATOR     = 

OBJECT_NAME    = SL-16 R/B
OBJECT_ID      = 1988-039B
CENTER_NAME    = EARTH
REF_FRAME      = TEME
TIME_SYSTEM    = UTC
MEAN_ELEMENT_THEORY = SGP/SGP4

EPOCH          = 2026-02-09T15:42:10.157472
MEAN_MOTION    = 14.19611550
ECCENTRICITY   = .00210316
INCLINATION    = 71.0149
RA_OF_ASC_NODE = 127.8315
ARG_OF_PERICENTER = 17.0993
MEAN_ANOMALY   = 343.0836

EPHEMERIS_TYPE = 0
CLASSIFICATION_TYPE = U
NORAD_CAT_ID   = 19120
ELEMENT_SET_NO = 999
REV_AT_EPOCH   = 95440
BSTAR          = -.4693659E-5
MEAN_MOTION_DOT = -.58E-6
MEAN_MOTION_DDOT = 0

CCSDS_OMM_VERS = 2.0
CREATION_DATE  = 
ORIGINATOR     = 

OBJECT_NAME    = COSMOS 1953
OBJECT_ID      = 1988-050A
CENTER_NAME    = EARTH
REF_FRAME      = TEME
TIME_SYSTEM    = UTC
MEAN_ELEMENT_THEORY = SGP/SGP4

EPOCH          = 2026-02-09T20:43:21.004320
MEAN_MOTION    = 15.27962113
ECCENTRICITY   = .00107362
INCLINATION    = 82.5093
RA_OF_ASC_NODE = 186.2144
ARG_OF_PERICENTER = 218.2468
MEAN_ANOMALY   = 141.8011

EPHEMERIS_TYPE = 0
CLASSIFICATION_TYPE = U
NORAD_CAT_ID   = 19210
ELEMENT_SET_NO = 999
REV_AT_EPOCH   = 3353
BSTAR          = .4024302E-3
MEAN_MOTION_DOT = .1103E-3
MEAN_MOTION_DDOT = 0

CCSDS_OMM_VERS = 2.0
CREATION_DATE  = 
ORIGINATOR     = 

OBJECT_NAME    = SL-8 R/B
OBJECT_ID      = 1988-053B
CENTER_NAME    = EARTH
REF_FRAME      = TEME
TIME_SYSTEM    = UTC
MEAN_ELEMENT_THEORY = SGP/SGP4

EPOCH          = 2026-02-09T20:41:43.831968
MEAN_MOTION    = 14.38898946
ECCENTRICITY   = .00204563
INCLINATION    = 74.0481
RA_OF_ASC_NODE = 163.7540
ARG_OF_PERICENTER = 348.1087
MEAN_ANOMALY   = 155.4218

EPHEMERIS_TYPE = 0
CLASSIFICATION_TYPE = U
NORAD_CAT_ID   = 19257
ELEMENT_SET_NO = 999
REV_AT_EPOCH   = 97259
BSTAR          = .10152507E-3
MEAN_MOTION_DOT = .287E-5
MEAN_MOTION_DDOT = 0

CCSDS_OMM_VERS = 2.0
CREATION_DATE  = 
ORIGINATOR     = 

OBJECT_NAME    = COSMOS 1975
OBJECT_ID      = 1988-093A
CENTER_NAME    = EARTH
REF_FRAME      = TEME
TIME_SYSTEM    = UTC
MEAN_ELEMENT_THEORY = SGP/SGP4

EPOCH          = 2026-02-09T18:12:22.029984
MEAN_MOTION    = 15.27577379
ECCENTRICITY   = .00103317
INCLINATION    = 82.5220
RA_OF_ASC_NODE = 145.7047
ARG_OF_PERICENTER = 268.0750
MEAN_ANOMALY   = 91.9306

EPHEMERIS_TYPE = 0
CLASSIFICATION_TYPE = U
NORAD_CAT_ID   = 19573
ELEMENT_SET_NO = 999
REV_AT_EPOCH   = 1514
BSTAR          = .37330033E-3
MEAN_MOTION_DOT = .10113E-3
MEAN_MOTION_DDOT = 0

CCSDS_OMM_VERS = 2.0
CREATION_DATE  = 
ORIGINATOR     = 

OBJECT_NAME    = SL-14 R/B
OBJECT_ID      = 1988-093B
CENTER_NAME    = EARTH
REF_FRAME      = TEME
TIME_SYSTEM    = UTC
MEAN_ELEMENT_THEORY = SGP/SGP4

EPOCH          = 2026-02-09T14:04:45.245856
MEAN_MOTION    = 14.85624512
ECCENTRICITY   = .0021958
INCLINATION    = 82.5280
RA_OF_ASC_NODE = 68.4327
ARG_OF_PERICENTER = 128.5081
MEAN_ANOMALY   = 348.7256

EPHEMERIS_TYPE = 0
CLASSIFICATION_TYPE = U
NORAD_CAT_ID   = 19574
ELEMENT_SET_NO = 999
REV_AT_EPOCH   = 99686
BSTAR          = .53033E-4
MEAN_MOTION_DOT = .486E-5
MEAN_MOTION_DDOT = 0

CCSDS_OMM_VERS = 2.0
CREATION_DATE  = 
ORIGINATOR     = 

OBJECT_NAME    = SL-16 R/B
OBJECT_ID      = 1988-102B
CENTER_NAME    = EARTH
REF_FRAME      = TEME
TIME_SYSTEM    = UTC
MEAN_ELEMENT_THEORY = SGP/SGP4

EPOCH          = 2026-02-09T22:24:11.648160
MEAN_MOTION    = 14.16147843
ECCENTRICITY   = .00125121
INCLINATION    = 70.9975
RA_OF_ASC_NODE = 209.8945
ARG_OF_PERICENTER = 47.3325
MEAN_ANOMALY   = 312.8850

EPHEMERIS_TYPE = 0
CLASSIFICATION_TYPE = U
NORAD_CAT_ID   = 19650
ELEMENT_SET_NO = 999
REV_AT_EPOCH   = 92296
BSTAR          = .16851192E-3
MEAN_MOTION_DOT = .286E-5
MEAN_MOTION_DDOT = 0

CCSDS_OMM_VERS = 2.0
CREATION_DATE  = 
ORIGINATOR     = 

OBJECT_NAME    = INTERCOSMOS 24
OBJECT_ID      = 1989-080A
CENTER_NAME    = EARTH
REF_FRAME      = TEME
TIME_SYSTEM    = UTC
MEAN_ELEMENT_THEORY = SGP/SGP4

EPOCH          = 2026-02-09T16:26:35.809152
MEAN_MOTION    = 12.59519309
ECCENTRICITY   = .11879952
INCLINATION    = 82.6067
RA_OF_ASC_NODE = 122.6324
ARG_OF_PERICENTER = 357.8555
MEAN_ANOMALY   = 1.7680

EPHEMERIS_TYPE = 0
CLASSIFICATION_TYPE = U
NORAD_CAT_ID   = 20261
ELEMENT_SET_NO = 999
REV_AT_EPOCH   = 66327
BSTAR          = .1665718E-3
MEAN_MOTION_DOT = .576E-5
MEAN_MOTION_DDOT = 0

CCSDS_OMM_VERS = 2.0
CREATION_DATE  = 
ORIGINATOR     = 

OBJECT_NAME    = SL-14 R/B
OBJECT_ID      = 1989-080C
CENTER_NAME    = EARTH
REF_FRAME      = TEME
TIME_SYSTEM    = UTC
MEAN_ELEMENT_THEORY = SGP/SGP4

EPOCH          = 2026-02-09T20:52:10.845408
MEAN_MOTION    = 12.50459348
ECCENTRICITY   = .12294746
INCLINATION    = 82.5945
RA_OF_ASC_NODE = 191.0448
ARG_OF_PERICENTER = 248.3648
MEAN_ANOMALY   = 98.2271

EPHEMERIS_TYPE = 0
CLASSIFICATION_TYPE = U
NORAD_CAT_ID   = 20262
ELEMENT_SET_NO = 999
REV_AT_EPOCH   = 65667
BSTAR          = .14452232E-3
MEAN_MOTION_DOT = .477E-5
MEAN_MOTION_DDOT = 0

CCSDS_OMM_VERS = 2.0
CREATION_DATE  = 
ORIGINATOR     = 

OBJECT_NAME    = DELTA 1 R/B
OBJECT_ID      = 1989-089B
CENTER_NAME    = EARTH
REF_FRAME      = TEME
TIME_SYSTEM    = UTC
MEAN_ELEMENT_THEORY = SGP/SGP4

EPOCH          = 2026-02-09T14:47:23.247456
MEAN_MOTION    = 14.50639519
ECCENTRICITY   = .0068292
INCLINATION    = 97.0725
RA_OF_ASC_NODE = 252.5162
ARG_OF_PERICENTER = 210.4093
MEAN_ANOMALY   = 149.3137

EPHEMERIS_TYPE = 0
CLASSIFICATION_TYPE = U
NORAD_CAT_ID   = 20323
ELEMENT_SET_NO = 999
REV_AT_EPOCH   = 89166
BSTAR          = .11477E-3
MEAN_MOTION_DOT = .428E-5
MEAN_MOTION_DDOT = 0

CCSDS_OMM_VERS = 2.0
CREATION_DATE  = 
ORIGINATOR     = 

OBJECT_NAME    = ARIANE 40 R/B
OBJECT_ID      = 1990-005H
CENTER_NAME    = EARTH
REF_FRAME      = TEME
TIME_SYSTEM    = UTC
MEAN_ELEMENT_THEORY = SGP/SGP4

EPOCH          = 2026-02-09T17:44:05.146944
MEAN_MOTION    = 14.39851597
ECCENTRICITY   = .00089551
INCLINATION    = 98.3147
RA_OF_ASC_NODE = 102.2247
ARG_OF_PERICENTER = 290.8766
MEAN_ANOMALY   = 69.1463

EPHEMERIS_TYPE = 0
CLASSIFICATION_TYPE = U
NORAD_CAT_ID   = 20443
ELEMENT_SET_NO = 999
REV_AT_EPOCH   = 88878
BSTAR          = .10908191E-3
MEAN_MOTION_DOT = .3E-5
MEAN_MOTION_DDOT = 0

